# From MPEC 2020-R04
C/2020 P1 (NEOWISE),e,44.9412,53.4031,8.9467,415.7455,0.0001163,0.99917458,0.0000,10/20.1610/2020,2000,g 14.0,3.2
# From MPEC 2020-R04
C/2020 P3 (ATLAS),e,61.8915,19.5070,82.4457,3994,0.0000039,0.99829561,0.0000,04/23.4601/2021,2000,g  6.0,4.0
# From MPEC 2020-QN1
C/2020 P4-A (SOHO),h,08/08.2175/2020,26.3307,175.2072,177.4762,1.002091,0.090759,2000,5.3,6.0
# From MPEC 2020-QN1
C/2020 P4-B (SOHO),h,08/08.1268/2020,27.3009,171.4999,173.4032,1.000484,0.098304,2000,0.0,6.0
# From MPEC 2020-QN1
C/2020 P4-C (SOHO),h,08/06.8019/2020,37.4581,164.0421,116.7323,1.012860,0.086543,2000,-1.6,6.0
# From MPEC 2020-R04
C/2020 Q1 (Borisov),e,142.9314,52.4978,10.3882,277.2233,0.0002135,0.99524560,0.0000,08/15.1995/2020,2000,g 14.0,4.0
# From MPEC 2020-R04
C/2020 Q2 (PANSTARRS),e,3.3127,179.9135,118.6874,10.89610,0.0274030,0.50409151,6.1574,09/20.0/2020,2000,g 12.0,3.2
# From MPEC 2020-RB9
C/2020 R2 (PANSTARRS),e,53.2416,195.0809,211.7389,459.2289,0.0001002,0.98978636,0.0000,02/24.2495/2022,2000,g  9.0,4.0
# From MPEC 2020-S33
C/2020 R4 (ATLAS),e,164.4570,323.3174,46.9696,75.32620,0.0015076,0.98637793,0.0000,03/02.1579/2021,2000,g 13.5,4.0
# From MPEC 2020-S99
P/2020 R5 (PANSTARRS),e,11.4544,272.9698,82.3226,4.978940,0.0887153,0.31449189,10.1836,09/20.0/2020,2000,g  9.5,6.0
# From MPEC 2020-SA2
P/2020 S1 (PANSTARRS),e,13.7342,129.4596,254.8850,5.981422,0.0673748,0.50727135,351.9848,09/20.0/2020,2000,g 14.0,4.0
# From MPEC 2020-SA5
C/2020 S2 (PANSTARRS),e,22.3846,197.6968,202.2196,10.12315,0.0306006,0.82651252,357.1576,09/20.0/2020,2000,g 17.0,4.0
# From  98, 1083
1P/Halley,e,162.2936,58.3758,111.3145,17.87130,0.0130458,0.96616600,165.1392,09/20.0/2020,2000,g  4.0,6.0
# From MPC118097
2P/Encke,e,11.7650,334.5494,186.5662,2.215462,0.2988873,0.84801209,25.7503,09/20.0/2020,2000,g 11.5,6.0
# From MPEC 2015-A10
4P/Faye,e,8.0078,193.0813,206.8799,3.828360,0.1315785,0.57752752,313.3848,09/20.0/2020,2000,g  8.0,6.0
# From MPEC 2015-S97
6P/d'Arrest,e,19.5122,138.9344,178.0962,3.497641,0.1506750,0.61261257,305.3377,09/20.0/2020,2000,g  9.0,4.0
# From MPEC 2015-E14
7P/Pons-Winnecke,e,22.3638,93.3783,172.5796,3.414713,0.1561970,0.63851682,321.0918,09/20.0/2020,2000,g  9.0,4.0
# From MPC 75715
8P/Tuttle,e,54.9116,270.2049,207.4902,5.703987,0.0723496,0.82009901,335.2726,09/20.0/2020,2000,g  9.0,4.0
# From MPEC 2019-JE2
9P/Tempel,e,10.4713,68.7315,179.3198,3.147270,0.1765237,0.50943385,266.2935,09/20.0/2020,2000,g  9.0,4.0
# From MPC114607
10P/Tempel,e,12.0398,117.8098,195.5189,3.060658,0.1840695,0.53852097,325.8922,09/20.0/2020,2000,g  5.0,10.0
# From MPEC 2017-L52
11P/Tempel-Swift-LINEAR,e,14.4204,238.9175,167.9421,3.282786,0.1657067,0.57694293,348.8610,09/20.0/2020,2000,g  9.0,4.0
# From  27, 604
12P/Pons-Brooks,e,74.0862,255.7219,199.0346,17.09790,0.0139409,0.95430279,341.7507,09/20.0/2020,2000,g  5.0,6.0
# From  27, 604
13P/Olbers,e,44.6262,85.8607,64.5307,16.68119,0.0144665,0.92971179,340.0296,09/20.0/2020,2000,g  5.0,6.0
# From MPC100283
14P/Wolf,e,27.9041,202.0738,158.9841,4.259090,0.1121318,0.35669449,114.6867,09/20.0/2020,2000,g  5.5,12.0
# From MPC 92276
15P/Finlay,e,6.7977,13.7221,347.8355,3.504409,0.1502387,0.71698895,315.4449,09/20.0/2020,2000,g 12.0,4.0
# From MPC 92276
16P/Brooks,e,3.0113,138.8699,245.1467,3.658950,0.1408216,0.48671273,330.4164,09/20.0/2020,2000,g  7.5,10.0
# From MPC114607
17P/Holmes,e,19.0290,326.6223,24.4793,3.638402,0.1420163,0.42817520,338.2932,09/20.0/2020,2000,g 10.0,6.0
# From MPC 92984
19P/Borrelly,e,29.3753,74.3873,351.8222,3.606164,0.1439249,0.63827236,288.0943,09/20.0/2020,2000,g  4.5,10.0
# From MPC111773
21P/Giacobini-Zinner,e,32.0169,195.3613,172.8481,3.495961,0.1507836,0.71070859,111.6662,09/20.0/2020,2000,g  9.0,6.0
# From MPC 94283
22P/Kopff,e,4.7420,120.8372,162.9681,3.442658,0.1542990,0.54889306,276.0593,09/20.0/2020,2000,g  3.0,10.4
# From MPC 14747
23P/Brorsen-Metcalf,e,19.1335,312.4181,128.8181,16.95405,0.0141187,0.97106437,0.0000,08/10.5719/1989,2000,g 10.0,6.0
# From MPC110085
24P/Schaumasse,e,11.6421,79.2217,57.8197,4.056494,0.1206363,0.70881308,125.2041,09/20.0/2020,2000,g  6.5,14.0
# From MPC 94674
26P/Grigg-Skjellerup,e,22.4420,211.5395,2.1931,3.013980,0.1883621,0.64057925,135.5098,09/20.0/2020,2000,g 12.0,16.0
# From MPC 78188
27P/Crommelin,e,29.1438,250.5836,195.9862,9.189176,0.0353826,0.91800552,118.3867,09/20.0/2020,2000,g 12.0,8.0
# From MPEC 2020-QH5
28P/Neujmin,e,14.3109,346.3398,347.4236,6.976678,0.0534849,0.77380824,350.7518,09/20.0/2020,2000,g  8.5,6.0
# From MPEC 2020-QH5
29P/Schwassmann-Wachmann,e,9.3668,312.3751,48.4445,6.034391,0.0664896,0.04422058,36.7785,09/20.0/2020,2000,g  4.0,4.0
# From MPC110085
30P/Reinmuth,e,8.5844,118.9247,11.6654,3.686636,0.1392383,0.52966324,155.4664,09/20.0/2020,2000,g  9.5,6.0
# From MPC108597
31P/Schwassmann-Wachmann,e,4.5473,114.1144,18.2443,4.240713,0.1128615,0.19236033,49.9456,09/20.0/2020,2000,g  5.0,8.0
# From MPC 92276
32P/Comas Sola,e,9.9205,57.3753,53.5058,4.496421,0.1033722,0.55828604,224.0471,09/20.0/2020,2000,g  6.5,8.0
# From MPEC 2013-O31
33P/Daniel,e,22.3209,66.3482,20.6097,4.083124,0.1194580,0.45227349,179.0271,09/20.0/2020,2000,g 10.0,12.0
# From  15, 452
35P/Herschel-Rigollet,e,64.830,356.452,29.047,28.5666,0.006455,0.9735562,0.000,12/24.1505/2091,2000,g  9.0,4.0
# From MPC105240
36P/Whipple,e,9.9521,181.8615,200.7865,4.131183,0.1173795,0.26857428,13.0640,09/20.0/2020,2000,g  8.5,6.0
# From MPEC 2018-HA5
37P/Forbes,e,8.9574,314.5608,330.0924,3.459454,0.1531767,0.53407443,133.2186,09/20.0/2020,2000,g 10.5,4.8
# From MPEC 2018-S50
38P/Stephan-Oterma,e,18.3552,77.9894,359.5350,11.25137,0.0261154,0.85893135,17.7350,09/20.0/2020,2000,g  3.5,12.0
# From MPC115887
39P/Oterma,e,1.5612,299.2553,95.1613,7.404233,0.0489197,0.22403260,312.7120,09/20.0/2020,2000,g  7.0,6.0
# From MPC100283
40P/Vaisala,e,11.4696,133.7807,47.4586,4.950993,0.0894676,0.62988059,191.3047,09/20.0/2020,2000,g  5.5,12.0
# From MPC105240
41P/Tuttle-Giacobini-Kresak,e,9.2210,140.9937,62.2625,3.086256,0.1817842,0.66020990,228.5027,09/20.0/2020,2000,g 10.0,16.0
# From MPC 94283
42P/Neujmin,e,3.9896,150.1877,147.1816,4.872941,0.0916257,0.58545503,182.2367,09/20.0/2020,2000,g 13.0,6.0
# From MPC102956
43P/Wolf-Harrington,e,9.3759,244.3648,224.0748,4.308406,0.1102121,0.43808644,163.6884,09/20.0/2020,2000,g  8.0,6.0
# From MPEC 2020-HN5
44P/Reinmuth,e,5.8984,286.4809,58.1361,3.688614,0.1391263,0.42717757,279.2286,09/20.0/2020,2000,g  8.3,6.0
# From MPC103849
45P/Honda-Mrkos-Pajdusakova,e,4.3247,87.7030,327.9502,3.050338,0.1850044,0.81759697,252.2143,09/20.0/2020,2000,g 13.5,8.0
# From MPC114607
46P/Wirtanen,e,11.7437,82.1569,356.3611,3.091699,0.1813044,0.65830085,117.3593,09/20.0/2020,2000,g 14.0,6.0
# From NK 2718
47P/Ashbrook-Jackson,e,13.0355,356.9251,357.6069,4.124931,0.1176465,0.31800639,140.8631,09/20.0/2020,2000,g  9.0,4.0
# From MPEC 2015-M77
48P/Johnson,e,12.2080,110.1267,216.6242,3.500524,0.1504889,0.42737104,115.7973,09/20.0/2020,2000,g  9.0,4.0
# From MPEC 2020-K19
49P/Arend-Rigaux,e,19.0461,118.7967,332.9714,3.569934,0.1461214,0.59850862,116.6170,09/20.0/2020,2000,g 11.3,4.4
# From MPEC 2015-S97
50P/Arend,e,19.0984,355.1624,49.3336,4.089318,0.1191867,0.52864242,201.2331,09/20.0/2020,2000,g  9.5,6.0
# From NK 3014
51P-A/Harrington,e,5.4250,83.6862,269.2126,3.709022,0.1379797,0.54315784,257.3298,09/20.0/2020,2000,g 10.0,8.0
# From NK 3013
51P-D/Harrington,e,5.4257,83.6710,269.2515,3.708019,0.1380356,0.54308870,257.5854,09/20.0/2020,2000,g 16.0,8.0
# From MPC 88330
52P/Harrington-Abell,e,10.2316,336.8385,139.5984,3.862563,0.1298347,0.53983080,310.6317,09/20.0/2020,2000,g 13.5,6.0
# From MPC100283
53P/Van Biesbroeck,e,6.6084,148.8280,134.4227,5.425256,0.0779962,0.55219958,125.0288,09/20.0/2020,2000,g  7.7,4.8
# From MPC 89011
54P/de Vico-Swift-NEAT,e,6.0622,358.8141,1.7645,3.792775,0.1334346,0.42556901,167.1810,09/20.0/2020,2000,g  9.0,4.0
# From MPC 31070
55P/Tempel-Tuttle,e,162.3915,235.4045,172.5308,10.35013,0.0295995,0.90656305,244.8059,09/20.0/2020,2000,g  9.0,4.0
# From MPC101100
56P/Slaughter-Burnham,e,8.1586,345.9848,44.0068,5.071355,0.0863014,0.50697404,131.5624,09/20.0/2020,2000,g  8.5,6.0
# From MPC 98565
57P/du Toit-Neujmin-Delporte,e,2.8506,188.7774,115.2376,3.446563,0.1540369,0.50079094,299.5519,09/20.0/2020,2000,g 12.5,6.0
# From MPEC 2020-HN5
58P/Jackson-Neujmin,e,13.1064,159.0814,200.4659,4.083752,0.1194305,0.66268096,13.7990,09/20.0/2020,2000,g  5.5,10.0
# From MPC111774
59P/Kearns-Kwee,e,9.3415,312.8341,127.5971,4.488733,0.1036378,0.47487573,76.1243,09/20.0/2020,2000,g  7.0,6.0
# From MPEC 2015-M77
60P/Tsuchinshan,e,3.6014,267.5881,216.8200,3.518786,0.1493189,0.53664311,96.9047,09/20.0/2020,2000,g  9.0,4.0
# From MPEC 2015-Q71
61P/Shajn-Schaldach,e,5.9988,162.9860,221.8822,3.685128,0.1393238,0.42383570,253.4803,09/20.0/2020,2000,g  6.0,10.0
# From MPC109147
62P/Tsuchinshan,e,5.0520,72.9565,43.8814,3.328919,0.1622741,0.64109148,167.7306,09/20.0/2020,2000,g  8.0,10.0
# From MPC 84320
63P/Wild,e,19.7341,358.0180,169.1382,5.605213,0.0742704,0.64895148,202.3216,09/20.0/2020,2000,g 10.5,6.0
# From MPC111774
64P/Swift-Gehrels,e,8.9504,300.0023,97.0866,4.454655,0.1048294,0.68766269,71.9161,09/20.0/2020,2000,g  9.5,12.0
# From MPC104795
65P/Gunn,e,9.1821,62.0236,213.8175,3.884603,0.1287313,0.24977512,137.5087,09/20.0/2020,2000,g  5.0,6.0
# From MPC109147
66P/du Toit,e,18.6578,21.8612,257.3193,6.063814,0.0660063,0.78692244,56.4216,09/20.0/2020,2000,g  9.0,4.0
# From MPC 89011
67P/Churyumov-Gerasimenko,e,3.8746,36.5386,21.9880,3.458549,0.1532368,0.65084584,297.5202,09/20.0/2020,2000,g 11.0,4.0
# From MPC 75716
68P/Klemola,e,11.1102,175.0762,153.0880,4.950638,0.0894772,0.63759141,28.2675,09/20.0/2020,2000,g 10.0,4.0
# From MPC114607
69P/Taylor,e,22.0331,104.8302,343.4932,3.888849,0.1285205,0.41304654,70.9136,09/20.0/2020,2000,g  9.5,12.0
# From MPC 92276
70P/Kojima,e,6.5982,119.2674,1.8528,3.675738,0.1398580,0.45344069,302.7690,09/20.0/2020,2000,g 11.0,6.0
# From MPC107051
